{
    "links": {
        "self": "http://www.neowsapp.com/rest/v1/neo/3263535?api_key=iIulBulltgU6a56xZRHN4H3l9WmuAYTsLGpBGhQ2"
    },
    "id": "3263535",
    "neo_reference_id": "3263535",
    "name": "(2004 XJ29)",
    "designation": "2004 XJ29",
    "nasa_jpl_url": "http://ssd.jpl.nasa.gov/sbdb.cgi?sstr=3263535",
    "absolute_magnitude_h": 21.3,
    "estimated_diameter": {
        "kilometers": {
            "estimated_diameter_min": 0.1460679643,
            "estimated_diameter_max": 0.3266178974
        },
        "meters": {
            "estimated_diameter_min": 146.0679642714,
            "estimated_diameter_max": 326.6178974458
        },
        "miles": {
            "estimated_diameter_min": 0.090762397,
            "estimated_diameter_max": 0.2029508896
        },
        "feet": {
            "estimated_diameter_min": 479.2256199,
            "estimated_diameter_max": 1071.581062656
        }
    },
    "is_potentially_hazardous_asteroid": false,
    "close_approach_data": [
        {
            "close_approach_date": "1988-01-07",
            "close_approach_date_full": "1988-Jan-07 12:22",
            "epoch_date_close_approach": 568556520000,
            "relative_velocity": {
                "kilometers_per_second": "22.8019438768",
                "kilometers_per_hour": "82086.9979565192",
                "miles_per_hour": "51005.6682580383"
            },
            "miss_distance": {
                "astronomical": "0.4494722869",
                "lunar": "174.8447196041",
                "kilometers": "67240096.744268903",
                "miles": "41781058.7034527414"
            },
            "orbiting_body": "Earth"
        },
        {
            "close_approach_date": "1990-08-25",
            "close_approach_date_full": "1990-Aug-25 15:28",
            "epoch_date_close_approach": 651598080000,
            "relative_velocity": {
                "kilometers_per_second": "21.1268217332",
                "kilometers_per_hour": "76056.5582393494",
                "miles_per_hour": "47258.5875348891"
            },
            "miss_distance": {
                "astronomical": "0.4066504686",
                "lunar": "158.1870322854",
                "kilometers": "60834043.937061882",
                "miles": "37800522.0689906916"
            },
            "orbiting_body": "Earth"
        },
        {
            "close_approach_date": "2004-12-14",
            "close_approach_date_full": "2004-Dec-14 14:59",
            "epoch_date_close_approach": 1103036340000,
            "relative_velocity": {
                "kilometers_per_second": "11.7555554128",
                "kilometers_per_hour": "42319.9994860195",
                "miles_per_hour": "26296.0019028547"
            },
            "miss_distance": {
                "astronomical": "0.0996181343",
                "lunar": "38.7514542427",
                "kilometers": "14902660.704653941",
                "miles": "9260083.9660727458"
            },
            "orbiting_body": "Earth"
        }
    ],
    "orbital_data": {
        "orbit_id": "21",
        "orbit_determination_date": "2017-04-06 09:11:47",
        "first_observation_date": "2004-12-11",
        "last_observation_date": "2005-01-16",
        "data_arc_in_days": 36,
        "observations_used": 136,
        "orbit_uncertainty": "7",
        "minimum_orbit_intersection": ".0543507",
        "jupiter_tisserand_invariant": "3.655",
        "epoch_osculation": "2459000.5",
        "eccentricity": ".5250641214472899",
        "semi_major_axis": "1.998218618574954",
        "inclination": "4.636875667804141",
        "ascending_node_longitude": "292.9513073806188",
        "orbital_period": "1031.722563891403",
        "perihelion_distance": ".9490257151532784",
        "perihelion_argument": "107.8202330221467",
        "aphelion_distance": "3.047411521996629",
        "perihelion_time": "2458487.925818448413",
        "mean_anomaly": "178.8530287275894",
        "mean_motion": ".3489310136265399",
        "equinox": "J2000",
        "orbit_class": {
            "orbit_class_type": "APO",
            "orbit_class_description": "Near-Earth asteroid orbits which cross the Earth’s orbit similar to that of 1862 Apollo",
            "orbit_class_range": "a (semi-major axis) > 1.0 AU; q (perihelion) < 1.017 AU"
        }
    },
    "is_sentry_object": false
}